[
    {
        "Altitude(m)": 604234.6241974607,
        "Argument of Periapsis(deg)": 0.0,
        "Eccentricity": 0.0,
        "Inclination(deg)": 60.0,
        "Latitude(deg)": 14.11732111997755,
        "Longitude(deg)": 121.72734073507675,
        "Mean Anomaly(deg)": 163.6364,
        "RAAN(deg)": 50.0,
        "Satellite Name": "Test1 230",
        "Satellite Number": 230,
        "Semi-Major Axis(m)": 6980739.136638005,
        "Time(s)": 0
    },
    {
        "Altitude(m)": 604223.4521973187,
        "Argument of Periapsis(deg)": 0.00010418945913296404,
        "Eccentricity": 0.0,
        "Inclination(deg)": 60.0,
        "Latitude(deg)": 13.582457222143557,
        "Longitude(deg)": 122.0142494853941,
        "Mean Anomaly(deg)": 164.25650614546183,
        "RAAN(deg)": 49.99957995086026,
        "Satellite Name": "Test1 230",
        "Satellite Number": 230,
        "Semi-Major Axis(m)": 6980739.136638005,
        "Time(s)": 10
    }
]